     2              NAVIGATION DATA                         RINEX VERSION / TYPE
CCRINEXN V1.6.0 UX  CDDIS               22-JUN-16 15:33     PGM / RUN BY / DATE 
IGS BROADCAST EPHEMERIS FILE                                COMMENT             
    0.4657D-08  0.1490D-07 -0.5960D-07 -0.1192D-06          ION ALPHA           
    0.8192D+05  0.9830D+05 -0.6554D+05 -0.5243D+06          ION BETA            
    0.372529029846D-08 0.888178419700D-14   233472     1902 DELTA-UTC: A0,A1,T,W
    17                                                      LEAP SECONDS        
                                                            END OF HEADER       
23 16  6 21 11 59 44.0-0.179037917405D-03-0.159161572810D-11 0.000000000000D+00
    0.400000000000D+01-0.189062500000D+02 0.501306595718D-08-0.258453507386D+01
   -0.127777457237D-05 0.110441023717D-01 0.894069671631D-05 0.515365843773D+04
    0.215984000000D+06 0.875443220139D-07-0.574126710385D+00-0.257045030594D-06
    0.945904261235D+00 0.202093750000D+03-0.256114321712D+01-0.802140555231D-08
   -0.477519890620D-09 0.100000000000D+01 0.190200000000D+04 0.000000000000D+00
    0.200000000000D+01 0.000000000000D+00-0.200234353542D-07 0.400000000000D+01
    0.208800000000D+06 0.400000000000D+01 0.000000000000D+00 0.000000000000D+00
25 16  6 21 11 59 44.0-0.194290187210D-03-0.704858393874D-11 0.000000000000D+00
    0.600000000000D+01 0.502812500000D+02 0.442625579989D-08 0.107465057288D+01
    0.272132456303D-05 0.563419226091D-02 0.151433050632D-05 0.515373880959D+04
    0.215984000000D+06-0.372529029846D-08 0.152417833267D+01 0.126659870148D-06
    0.978230458585D+00 0.359093750000D+03 0.788858464973D+00-0.835963392659D-08
   -0.714315468392D-11 0.100000000000D+01 0.190200000000D+04 0.000000000000D+00
    0.200000000000D+01 0.000000000000D+00 0.558793544769D-08 0.600000000000D+01
    0.209130000000D+06 0.400000000000D+01 0.000000000000D+00 0.000000000000D+00
31 16  6 21 11 59 44.0 0.262802466750D-03-0.193267624127D-11 0.000000000000D+00
    0.100000000000D+01 0.116437500000D+03 0.418838874892D-08 0.205576565137D+01
    0.629574060440D-05 0.816606043372D-02 0.955164432526D-05 0.515377277183D+04
    0.215984000000D+06 0.128522515297D-06 0.507993899642D+00 0.135973095894D-06
    0.971269268235D+00 0.199406250000D+03-0.395669310106D+00-0.776139472182D-08
   -0.796461747257D-10 0.100000000000D+01 0.190200000000D+04 0.000000000000D+00
    0.200000000000D+01 0.000000000000D+00-0.135041773319D-07 0.100000000000D+01
    0.208800000000D+06 0.400000000000D+01 0.000000000000D+00 0.000000000000D+00
 1 16  6 21 12  0  0.0 0.243573449552D-04 0.125055521494D-11 0.000000000000D+00
    0.240000000000D+02-0.399062500000D+02 0.398338020949D-08 0.291919341034D+01
   -0.198185443878D-05 0.558599701617D-02 0.121369957924D-04 0.515364885139D+04
    0.216000000000D+06-0.931322574616D-08-0.266015218439D+01-0.223517417908D-07
    0.964861548071D+00 0.147000000000D+03 0.475198750735D+00-0.759674500635D-08
    0.557880380814D-09 0.100000000000D+01 0.190200000000D+04 0.000000000000D+00
    0.200000000000D+01 0.000000000000D+00 0.512227416039D-08 0.240000000000D+02
    0.208800000000D+06 0.400000000000D+01 0.000000000000D+00 0.000000000000D+00
 2 16  6 21 12  0  0.0 0.583900138736D-03-0.261479726760D-11 0.000000000000D+00
    0.900000000000D+02-0.499375000000D+02 0.433660920861D-08-0.299476951235D+01
   -0.252388417721D-05 0.157887472305D-01 0.111050903797D-04 0.515358696365D+04
    0.216000000000D+06 0.117346644402D-06-0.270620080495D+01-0.160187482834D-06
    0.943667439011D+00 0.153000000000D+03-0.210813074258D+01-0.755281460504D-08
    0.485734518507D-09 0.000000000000D+00 0.190200000000D+04 0.000000000000D+00
    0.200000000000D+01 0.000000000000D+00-0.200234353542D-07 0.900000000000D+02
    0.208800000000D+06 0.400000000000D+01 0.000000000000D+00 0.000000000000D+00
 3 16  6 21 12  0  0.0-0.692112371326D-04-0.329691829393D-11 0.000000000000D+00
    0.780000000000D+02 0.171562500000D+02 0.492306220816D-08-0.236749449222D+01
    0.784173607826D-06 0.214319908991D-03 0.497512519360D-05 0.515366949272D+04
    0.216000000000D+06 0.242143869400D-07-0.161863033207D+01 0.149011611938D-07
    0.958801338244D+00 0.277625000000D+03-0.166006532301D+01-0.818319800590D-08
    0.397159400426D-09 0.100000000000D+01 0.190200000000D+04 0.000000000000D+00
    0.200000000000D+01 0.000000000000D+00 0.186264514923D-08 0.780000000000D+02
    0.208800000000D+06 0.400000000000D+01 0.000000000000D+00 0.000000000000D+00
 5 16  6 21 12  0  0.0-0.111175235361D-03 0.295585778076D-11 0.000000000000D+00
    0.430000000000D+02 0.183750000000D+02 0.518450166959D-08-0.510962783628D+00
    0.117532908917D-05 0.464118516538D-02 0.511296093464D-05 0.515380761909D+04
    0.216000000000D+06 0.465661287308D-07-0.163086994005D+01 0.130385160446D-07
    0.945868457778D+00 0.269656250000D+03 0.456258201145D+00-0.836963434315D-08
    0.408588447920D-09 0.000000000000D+00 0.190200000000D+04 0.000000000000D+00
    0.200000000000D+01 0.000000000000D+00-0.107102096081D-07 0.430000000000D+02
    0.208800000000D+06 0.400000000000D+01 0.000000000000D+00 0.000000000000D+00
 6 16  6 21 12  0  0.0 0.207866542041D-03 0.534328137292D-11 0.000000000000D+00
    0.850000000000D+02-0.411562500000D+02 0.399730936112D-08-0.309869586809D+01
   -0.200793147087D-05 0.396964256652D-03 0.114496797323D-04 0.515371853638D+04
    0.216000000000D+06-0.242143869400D-07-0.266857412478D+01-0.409781932831D-07
    0.964692910189D+00 0.162406250000D+03-0.136425420559D+01-0.761031700025D-08
    0.453590322429D-09 0.000000000000D+00 0.190200000000D+04 0.000000000000D+00
    0.200000000000D+01 0.000000000000D+00 0.419095158577D-08 0.850000000000D+02
    0.208800000000D+06 0.400000000000D+01 0.000000000000D+00 0.000000000000D+00
 7 16  6 21 12  0  0.0 0.447051599622D-03-0.238742359215D-11 0.000000000000D+00
    0.330000000000D+02 0.127406250000D+03 0.425874890908D-08 0.219726437791D+01
    0.658445060253D-05 0.961464946158D-02 0.107921659946D-04 0.515365241814D+04
    0.216000000000D+06-0.273808836937D-06 0.498535882638D+00-0.931322574616D-08
    0.966458905395D+00 0.176218750000D+03-0.266993627267D+01-0.779925368732D-08
    0.467876640209D-10 0.100000000000D+01 0.190200000000D+04 0.000000000000D+00
    0.200000000000D+01 0.000000000000D+00-0.111758708954D-07 0.330000000000D+02
    0.208800000000D+06 0.000000000000D+00 0.000000000000D+00 0.000000000000D+00
 8 16  6 21 12  0  0.0-0.398675911129D-04-0.147792889038D-11 0.000000000000D+00
    0.930000000000D+02-0.136281250000D+03 0.426910640172D-08-0.405585176582D+00
   -0.698491930962D-05 0.170444964897D-02 0.574812293053D-05 0.515371270561D+04
    0.216000000000D+06-0.949949026108D-07 0.256288238387D+01 0.186264514923D-08
    0.963700991752D+00 0.271968750000D+03-0.106720753389D+01-0.810283751207D-08
   -0.399659499939D-09 0.100000000000D+01 0.190200000000D+04 0.000000000000D+00
    0.200000000000D+01 0.000000000000D+00 0.465661287308D-08 0.930000000000D+02
    0.208800000000D+06 0.000000000000D+00 0.000000000000D+00 0.000000000000D+00
 9 16  6 21 12  0  0.0 0.152826774865D-03 0.727595761418D-11 0.000000000000D+00
    0.770000000000D+02-0.175000000000D+02 0.487270296764D-08-0.164431831042D+01
   -0.929459929466D-06 0.527166295797D-03 0.881962478161D-05 0.515355496407D+04
    0.216000000000D+06 0.111758708954D-07-0.579147612006D+00-0.260770320892D-07
    0.954969996756D+00 0.212062500000D+03 0.234991672250D+01-0.802176271004D-08
   -0.528236288876D-09 0.100000000000D+01 0.190200000000D+04 0.000000000000D+00
    0.200000000000D+01 0.000000000000D+00 0.139698386192D-08 0.770000000000D+02
    0.212340000000D+06 0.400000000000D+01 0.000000000000D+00 0.000000000000D+00
10 16  6 21 12  0  0.0-0.500935129821D-04-0.795807864051D-11 0.000000000000D+00
    0.104000000000D+03 0.182500000000D+02 0.492199073496D-08 0.578939782549D+00
    0.923871994019D-06 0.157563702669D-02 0.515021383762D-05 0.515367245865D+04
    0.216000000000D+06-0.186264514923D-08-0.162261941856D+01 0.558793544769D-07
    0.959037580496D+00 0.281031250000D+03-0.271927740688D+01-0.816855453880D-08
    0.363586573412D-09 0.100000000000D+01 0.190200000000D+04 0.000000000000D+00
    0.280000000000D+01 0.000000000000D+00 0.232830643654D-08 0.104000000000D+03
    0.208800000000D+06 0.400000000000D+01 0.000000000000D+00 0.000000000000D+00
11 16  6 21 12  0  0.0-0.652584247291D-03-0.238742359215D-11 0.000000000000D+00
    0.830000000000D+02-0.110000000000D+03 0.533272212928D-08 0.231380493789D+01
   -0.559538602829D-05 0.164800968487D-01 0.109337270260D-04 0.515367527771D+04
    0.216000000000D+06 0.264495611191D-06-0.303872436359D+01-0.316649675369D-07
    0.897359716645D+00 0.130125000000D+03 0.153368516140D+01-0.806997900416D-08
    0.136791412197D-09 0.100000000000D+01 0.190200000000D+04 0.000000000000D+00
    0.400000000000D+01 0.000000000000D+00-0.121071934700D-07 0.830000000000D+02
    0.208800000000D+06 0.400000000000D+01 0.000000000000D+00 0.000000000000D+00
12 16  6 21 12  0  0.0 0.383331906050D-03 0.102318153950D-11 0.000000000000D+00
    0.420000000000D+02 0.442187500000D+02 0.414302971667D-08 0.161530069249D+01
    0.217556953430D-05 0.614193954971D-02 0.146217644215D-05 0.515371008492D+04
    0.216000000000D+06-0.156462192535D-06 0.157541923131D+01 0.838190317154D-07
    0.990012211240D+00 0.368062500000D+03 0.768812701255D+00-0.815212528303D-08
   -0.714315468392D-11 0.000000000000D+00 0.190200000000D+04 0.000000000000D+00
    0.200000000000D+01 0.000000000000D+00-0.125728547573D-07 0.420000000000D+02
    0.212640000000D+06 0.400000000000D+01 0.000000000000D+00 0.000000000000D+00
